IRIDIUM 144             
1 43249U 18030A   25130.45693825  .00000070  00000+0  18047-4 0  9997
2 43249  86.3933  98.7809 0002394  89.2664 270.8806 14.34217787372412
IRIDIUM 149             
1 43250U 18030B   25130.88189160  .00000143  00000+0  44129-4 0  9999
2 43250  86.3932  98.5747 0002442  88.9628 271.1848 14.34218157372492
IRIDIUM 157             
1 43251U 18030C   25130.83115048  .00000110  00000+0  32069-4 0  9993
2 43251  86.3934  98.6402 0002223  80.6739 279.4708 14.34217533372463
IRIDIUM 140             
1 43252U 18030D   25130.85017869  .00000097  00000+0  27640-4 0  9991
2 43252  86.3933  98.6461 0002357  91.9729 268.1737 14.34217655372529
IRIDIUM 145             
1 43253U 18030E   25130.62818644  .00000112  00000+0  32877-4 0  9993
2 43253  86.3934  98.7117 0002636  91.4248 268.7250 14.34216747372427
IRIDIUM 146             
1 43254U 18030F   25130.39985477  .00000013  00000+0 -24187-5 0  9994
2 43254  86.3935  98.8212 0002553  92.1204 268.0284 14.34217518372409
IRIDIUM 148             
1 43255U 18030G   25130.64721902  .00000322  00000+0  10806-3 0  9997
2 43255  86.3937  98.7543 0002602  86.1099 274.0394 14.34211322372471
IRIDIUM 142             
1 43256U 18030H   25130.82480928  .00000064  00000+0  15723-4 0  9995
2 43256  86.3931  98.5837 0002765  90.0128 270.1385 14.34218032372468
